ONEWEB-0396             
1 50476U 21132H   24020.36575840 -.00000064  00000+0 -19600-3 0  9997
2 50476  87.9236 150.3264 0001351 108.7115 251.4164 13.18687879105819
ONEWEB-0397             
1 50477U 21132J   24020.37998126  .00000107  00000+0  23938-3 0  9990
2 50477  87.9235 150.3247 0001347 110.7256 249.4021 13.18686272105796
ONEWEB-0398             
1 50478U 21132K   24020.50132483 -.00000288  00000+0 -84841-3 0  9994
2 50478  87.8961 195.7244 0001501  76.4465 283.6830 13.11415253100441
ONEWEB-0399             
1 50479U 21132L   24020.48673292  .00000226  00000+0  60107-3 0  9999
2 50479  87.8961 195.7417 0001307 108.8950 251.2320 13.11415322100438
ONEWEB-0400             
1 50480U 21132M   24020.35943517  .00000078  00000+0  16432-3 0  9994
2 50480  87.9239 150.3375 0001605  96.6525 263.4790 13.18686230105786
ONEWEB-0401             
1 50481U 21132N   24020.40212686 -.00000105  00000+0 -29782-3 0  9992
2 50481  87.9235 150.3286 0001683 115.6737 244.4569 13.18687584105794
ONEWEB-0402             
1 50482U 21132P   24020.36733338  .00000108  00000+0  24180-3 0  9998
2 50482  87.9237 150.3322 0002109 113.3113 246.8242 13.18685517105816
ONEWEB-0404             
1 50484U 21132R   24020.54517658  .00000597  00000+0  16476-2 0  9995
2 50484  87.8971 195.6903 0000858  94.4128 265.7098 13.11417379100538
ONEWEB-0405             
1 50485U 21132S   24020.40685002 -.00000360  00000+0 -94479-3 0  9990
2 50485  87.9238 150.3185 0001714 120.8250 239.3051 13.18686304106173
ONEWEB-0406             
1 50486U 21132T   24020.39580908  .00000088  00000+0  19117-3 0  9999
2 50486  87.9235 150.3287 0001049 106.1781 253.9467 13.18688504105807
ONEWEB-0407             
1 50487U 21132U   24020.38946727  .00000081  00000+0  17178-3 0  9992
2 50487  87.9236 150.3389 0001527 113.6140 246.5153 13.18685523105746
ONEWEB-0409             
1 50488U 21132V   24020.54354282  .00000564  00000+0  15566-2 0  9994
2 50488  87.8963 195.7003 0000946  69.8682 290.2548 13.11417328100429
ONEWEB-0413             
1 50490U 21132X   24020.38314102  .00000098  00000+0  21521-3 0  9997
2 50490  87.9239 150.3457 0001891 116.2593 243.8733 13.18684086105774
ONEWEB-0414             
1 50491U 21132Y   24020.36891223  .00000064  00000+0  13072-3 0  9995
2 50491  87.9236 150.3330 0001447 119.5911 240.5365 13.18685509105809
ONEWEB-0417             
1 50492U 21132Z   24020.37682369  .00000112  00000+0  25232-3 0  9991
2 50492  87.9243 150.3238 0001247  99.4737 260.6537 13.18685768105783
ONEWEB-0418             
1 50493U 21132AA  24020.39027192  .00000079  00000+0  16676-3 0  9995
2 50493  87.9240 150.3321 0000993  96.3164 263.8081 13.18686156105849
ONEWEB-0419             
1 50494U 21132AB  24020.40369160 -.00000075  00000+0 -22364-3 0  9991
2 50494  87.9236 150.3502 0001392  89.4450 270.6842 13.18686602105769
ONEWEB-0420             
1 50495U 21132AC  24020.44638527  .00000394  00000+0  96557-3 0  9999
2 50495  87.9237 150.3503 0001970 109.5336 250.6009 13.18684705105766
ONEWEB-0421             
1 50496U 21132AD  24020.36417820 -.00000032  00000+0 -11267-3 0  9998
2 50496  87.9244 150.3209 0001564 123.3347 236.7935 13.18687992105790
ONEWEB-0424             
1 50497U 21132AE  24020.39896165 -.00000082  00000+0 -23982-3 0  9997
2 50497  87.9239 150.3272 0001637  81.5974 278.5344 13.18686335105829
ONEWEB-0426             
1 50498U 21132AF  24020.43689460 -.00000158  00000+0 -43351-3 0  9997
2 50498  87.9236 150.3423 0000924 124.1453 235.9767 13.18686429105773
ONEWEB-0427             
1 50499U 21132AG  24020.39737932  .00000052  00000+0  99275-4 0  9999
2 50499  87.9237 150.3259 0001274 100.8959 259.2317 13.18686332105798
ONEWEB-0429             
1 50500U 21132AH  24020.38474635  .00000072  00000+0  15000-3 0  9994
2 50500  87.9242 150.3252 0001607 105.5633 254.5677 13.18687285105763
ONEWEB-0430             
1 50501U 21132AJ  24020.37367148  .00000259  00000+0  62310-3 0  9997
2 50501  87.9239 150.3369 0001776  89.7184 270.4152 13.18685183105805
ONEWEB-0432             
1 50502U 21132AK  24020.40527422  .00000073  00000+0  15234-3 0  9992
2 50502  87.9239 150.3257 0001617 101.3288 258.8026 13.18685334105765
ONEWEB-0450             
1 50504U 21132AM  24020.38630956 -.00000175  00000+0 -47775-3 0  9998
2 50504  87.9241 150.3417 0002005 103.5913 256.5442 13.18687080105788
ONEWEB-0410             
1 51622U 22012A   24020.48443526 -.00000294  00000+0 -79055-3 0  9992
2 51622  87.9215 180.5819 0000338 127.2786 232.8377 13.17648815 97988
