OBJECT_NAME,OBJECT_ID,EPOCH,MEAN_MOTION,ECCENTRICITY,INCLINATION,RA_OF_ASC_NODE,ARG_OF_PERICENTER,MEAN_ANOMALY,EPHEMERIS_TYPE,CLASSIFICATION_TYPE,NORAD_CAT_ID,ELEMENT_SET_NO,REV_AT_EPOCH,BSTAR,MEAN_MOTION_DOT,MEAN_MOTION_DDOT
ONEWEB-0396,2021-132H,2024-01-20T08:46:41.525760,13.18687879,.0001351,87.9236,150.3264,108.7115,251.4164,0,U,50476,999,10581,-.196E-3,-.64E-6,0
ONEWEB-0397,2021-132J,2024-01-20T09:07:10.380864,13.18686272,.0001347,87.9235,150.3247,110.7256,249.4021,0,U,50477,999,10579,.23938E-3,.107E-5,0
ONEWEB-0398,2021-132K,2024-01-20T12:01:54.465312,13.11415253,.0001501,87.8961,195.7244,76.4465,283.6830,0,U,50478,999,10044,-.84841E-3,-.288E-5,0
ONEWEB-0399,2021-132L,2024-01-20T11:40:53.724288,13.11415322,.0001307,87.8961,195.7417,108.8950,251.2320,0,U,50479,999,10043,.60107E-3,.226E-5,0
ONEWEB-0400,2021-132M,2024-01-20T08:37:35.198688,13.18686230,.0001605,87.9239,150.3375,96.6525,263.4790,0,U,50480,999,10578,.16432E-3,.78E-6,0
ONEWEB-0401,2021-132N,2024-01-20T09:39:03.760704,13.18687584,.0001683,87.9235,150.3286,115.6737,244.4569,0,U,50481,999,10579,-.29782E-3,-.105E-5,0
ONEWEB-0402,2021-132P,2024-01-20T08:48:57.604032,13.18685517,.0002109,87.9237,150.3322,113.3113,246.8242,0,U,50482,999,10581,.2418E-3,.108E-5,0
ONEWEB-0404,2021-132R,2024-01-20T13:05:03.256512,13.11417379,.0000858,87.8971,195.6903,94.4128,265.7098,0,U,50484,999,10053,.16476E-2,.597E-5,0
ONEWEB-0405,2021-132S,2024-01-20T09:45:51.841728,13.18686304,.0001714,87.9238,150.3185,120.8250,239.3051,0,U,50485,999,10617,-.94479E-3,-.36E-5,0
ONEWEB-0406,2021-132T,2024-01-20T09:29:57.904512,13.18688504,.0001049,87.9235,150.3287,106.1781,253.9467,0,U,50486,999,10580,.19117E-3,.88E-6,0
ONEWEB-0407,2021-132U,2024-01-20T09:20:49.972128,13.18685523,.0001527,87.9236,150.3389,113.6140,246.5153,0,U,50487,999,10574,.17178E-3,.81E-6,0
ONEWEB-0409,2021-132V,2024-01-20T13:02:42.099648,13.11417328,.0000946,87.8963,195.7003,69.8682,290.2548,0,U,50488,999,10042,.15566E-2,.564E-5,0
ONEWEB-0413,2021-132X,2024-01-20T09:11:43.384128,13.18684086,.0001891,87.9239,150.3457,116.2593,243.8733,0,U,50490,999,10577,.21521E-3,.98E-6,0
ONEWEB-0414,2021-132Y,2024-01-20T08:51:14.016672,13.18685509,.0001447,87.9236,150.3330,119.5911,240.5365,0,U,50491,999,10580,.13072E-3,.64E-6,0
ONEWEB-0417,2021-132Z,2024-01-20T09:02:37.566816,13.18685768,.0001247,87.9243,150.3238,99.4737,260.6537,0,U,50492,999,10578,.25232E-3,.112E-5,0
ONEWEB-0418,2021-132AA,2024-01-20T09:21:59.493888,13.18686156,.0000993,87.9240,150.3321,96.3164,263.8081,0,U,50493,999,10584,.16676E-3,.79E-6,0
ONEWEB-0419,2021-132AB,2024-01-20T09:41:18.954240,13.18686602,.0001392,87.9236,150.3502,89.4450,270.6842,0,U,50494,999,10576,-.22364E-3,-.75E-6,0
ONEWEB-0420,2021-132AC,2024-01-20T10:42:47.687328,13.18684705,.000197,87.9237,150.3503,109.5336,250.6009,0,U,50495,999,10576,.96557E-3,.394E-5,0
ONEWEB-0421,2021-132AD,2024-01-20T08:44:24.996480,13.18687992,.0001564,87.9244,150.3209,123.3347,236.7935,0,U,50496,999,10579,-.11267E-3,-.32E-6,0
ONEWEB-0424,2021-132AE,2024-01-20T09:34:30.286560,13.18686335,.0001637,87.9239,150.3272,81.5974,278.5344,0,U,50497,999,10582,-.23982E-3,-.82E-6,0
ONEWEB-0426,2021-132AF,2024-01-20T10:29:07.693440,13.18686429,.0000924,87.9236,150.3423,124.1453,235.9767,0,U,50498,999,10577,-.43351E-3,-.158E-5,0
ONEWEB-0427,2021-132AG,2024-01-20T09:32:13.573248,13.18686332,.0001274,87.9237,150.3259,100.8959,259.2317,0,U,50499,999,10579,.99275E-4,.52E-6,0
ONEWEB-0429,2021-132AH,2024-01-20T09:14:02.084640,13.18687285,.0001607,87.9242,150.3252,105.5633,254.5677,0,U,50500,999,10576,.15E-3,.72E-6,0
ONEWEB-0430,2021-132AJ,2024-01-20T08:58:05.215872,13.18685183,.0001776,87.9239,150.3369,89.7184,270.4152,0,U,50501,999,10580,.6231E-3,.259E-5,0
ONEWEB-0432,2021-132AK,2024-01-20T09:43:35.692608,13.18685334,.0001617,87.9239,150.3257,101.3288,258.8026,0,U,50502,999,10576,.15234E-3,.73E-6,0
ONEWEB-0450,2021-132AM,2024-01-20T09:16:17.145984,13.18687080,.0002005,87.9241,150.3417,103.5913,256.5442,0,U,50504,999,10578,-.47775E-3,-.175E-5,0
ONEWEB-0410,2022-012A,2024-01-20T11:37:35.206464,13.17648815,.0000338,87.9215,180.5819,127.2786,232.8377,0,U,51622,999,9798,-.79055E-3,-.294E-5,0
